[{"OBJECT_NAME":"STARLINK-6166","OBJECT_ID":"2023-061K","EPOCH":"2026-03-09T22:00:01.999584","MEAN_MOTION":15.13484228,"ECCENTRICITY":0.00023094,"INCLINATION":42.9998,"RA_OF_ASC_NODE":195.708,"ARG_OF_PERICENTER":284.6312,"MEAN_ANOMALY":123.1748,"EPHEMERIS_TYPE":0,"CLASSIFICATION_TYPE":"U","NORAD_CAT_ID":56383,"ELEMENT_SET_NO":999,"REV_AT_EPOCH":572,"BSTAR":0.0043761353,"MEAN_MOTION_DOT":0.00080384,"MEAN_MOTION_DDOT":0},{"OBJECT_NAME":"COSMOS 886 DEB","OBJECT_ID":"1976-126CG","EPOCH":"2026-03-09T13:42:09.387072","MEAN_MOTION":14.65936144,"ECCENTRICITY":0.0273927,"INCLINATION":65.5637,"RA_OF_ASC_NODE":138.088,"ARG_OF_PERICENTER":273.4033,"MEAN_ANOMALY":83.5779,"EPHEMERIS_TYPE":0,"CLASSIFICATION_TYPE":"U","NORAD_CAT_ID":20673,"ELEMENT_SET_NO":999,"REV_AT_EPOCH":71273,"BSTAR":0.0023391,"MEAN_MOTION_DOT":0.00022449,"MEAN_MOTION_DDOT":0}]
